IRIDIUM 36 [-]          
1 24967U 97056C   24104.21551007  .00000563  00000+0  18432-3 0  9991
2 24967  86.4011 353.5709 0002102  82.1290 278.0146 14.36719504390469
IRIDIUM 39 [-]          
1 25042U 97069D   24104.18505129  .00000952  00000+0  25156-3 0  9993
2 25042  86.3957  35.3548 0016492 306.3108  53.6572 14.47825056386977
IRIDIUM 38 [-]          
1 25043U 97069E   24103.40794670  .00000657  00000+0  21460-3 0  9995
2 25043  86.3967  54.2878 0004074  79.8266 280.3390 14.37159365384062
IRIDIUM 42 [-]          
1 25077U 97077A   24103.94071708  .00000611  00000+0  20602-3 0  9997
2 25077  86.3960  59.7084 0002918  86.5872 273.5658 14.35468997379454
IRIDIUM 44 [-]          
1 25078U 97077B   24103.37962194  .00000643  00000+0  20100-3 0  9991
2 25078  86.3984  43.0235 0003128  50.3117 309.8357 14.39297249381715
IRIDIUM 45 [-]          
1 25104U 97082A   24103.48064582  .00019884  00000+0  11493-2 0  9994
2 25104  86.3720 253.0434 0166434 118.1032 243.7137 15.01106311386992
IRIDIUM 24 [-]          
1 25105U 97082B   24103.96556885  .00000649  00000+0  19550-3 0  9992
2 25105  86.3869 262.4792 0013289  63.8908 296.3658 14.41062148381488
IRIDIUM 51 [-]          
1 25262U 98018A   24103.90978828  .00017552  00000+0  84785-3 0  9998
2 25262  86.3948 262.8503 0152060  63.7563 297.9211 15.08792042381783
